{
  "norad_id": 61942,
  "name": "STARLINK-11320 [DTC]",
  "history": [
    {
      "epoch": "2026-03-28T19:01:48.593856Z",
      "apogee_km": 360.50996238562675,
      "perigee_km": 358.9013698275203,
      "latitude_deg": 8.796196842038073e-06,
      "longitude_deg": 165.7694551648261,
      "height_km": 360.8073571970929,
      "semi_major_axis_km": 6737.842666106573,
      "eccentricity": 0.00011937,
      "inclination_deg": 53.1584,
      "raan_deg": 277.4302,
      "arg_perigee_deg": 103.539,
      "mean_anomaly_deg": 256.5761,
      "mean_motion_rev_day": 15.69717368
    }
  ]
}