{"fetched_at":"2026-03-29T16:36:15Z","count":15609,"tles":[{"name":"STARLINK-11320 [DTC]","line1":"1 61942U 24209D   26087.79292354  .00192889  00000+0  15598-2 0  9999","line2":"2 61942  53.1584 277.4302 0001193 103.5390 256.5761 15.69717368 79674","category":"Starlink"}]}